[{"OBJECT_NAME":"PRAETORIAN SDA_619","OBJECT_ID":"2025-203T","EPOCH":"2026-03-09T14:29:57.164640","MEAN_MOTION":13.83929489,"ECCENTRICITY":0.0009419,"INCLINATION":81.3013,"RA_OF_ASC_NODE":102.9558,"ARG_OF_PERICENTER":101.1337,"MEAN_ANOMALY":259.0878,"EPHEMERIS_TYPE":0,"CLASSIFICATION_TYPE":"U","NORAD_CAT_ID":65582,"ELEMENT_SET_NO":999,"REV_AT_EPOCH":2555,"BSTAR":0.00020555,"MEAN_MOTION_DOT":2.4e-6,"MEAN_MOTION_DDOT":0},{"OBJECT_NAME":"METEOR 2-15","OBJECT_ID":"1987-001A","EPOCH":"2026-03-09T19:48:53.381376","MEAN_MOTION":13.8526204,"ECCENTRICITY":0.00142877,"INCLINATION":82.4708,"RA_OF_ASC_NODE":175.8,"ARG_OF_PERICENTER":93.2686,"MEAN_ANOMALY":267.0109,"EPHEMERIS_TYPE":0,"CLASSIFICATION_TYPE":"U","NORAD_CAT_ID":17290,"ELEMENT_SET_NO":999,"REV_AT_EPOCH":98007,"BSTAR":6.6103235e-5,"MEAN_MOTION_DOT":9.0e-7,"MEAN_MOTION_DDOT":0}]
